OBJECT_NAME,OBJECT_ID,EPOCH,MEAN_MOTION,ECCENTRICITY,INCLINATION,RA_OF_ASC_NODE,ARG_OF_PERICENTER,MEAN_ANOMALY,EPHEMERIS_TYPE,CLASSIFICATION_TYPE,NORAD_CAT_ID,ELEMENT_SET_NO,REV_AT_EPOCH,BSTAR,MEAN_MOTION_DOT,MEAN_MOTION_DDOT
STARLINK-31228,2024-017S,2024-02-05T16:00:00.999936,15.70345204,9.52e-05,53.1591,157.888,59.2853,234.9325,0,U,58842,999,313,-0.015585,-0.01708862,0
STARLINK-31280,2024-017T,2024-02-06T02:00:01.000224,15.68791722,0.0001011,53.1594,155.8308,65.8477,64.9449,0,U,58843,999,320,-0.016743,-0.01718791,0
STARLINK-31269,2024-017U,2024-02-07T14:00:01.000224,15.63174878,0.0001094,53.1593,148.4705,69.0315,245.4785,0,U,58844,999,343,-0.021027,-0.01750501,0
STARLINK-31264,2024-017V,2024-02-07T14:00:01.000224,15.63176131,0.0001159,53.1593,148.4734,58.2666,255.3742,0,U,58845,999,343,-0.021027,-0.01750616,0
STARLINK-31273,2024-017W,2024-02-06T18:00:00.999648,15.6626723,0.0001177,53.1589,152.5534,42.8442,253.069,0,U,58846,999,328,-0.017941,-0.01667066,0
STARLINK-31262,2024-017X,2024-02-07T14:00:01.000224,15.63174157,9.3e-05,53.1594,148.4685,78.0222,237.3578,0,U,58847,999,343,-0.021036,-0.01751035,0
AAC-HIS-SAT3,2023-174DH,2024-02-07T13:18:13.311072,15.06136559,0.0014405,97.4508,114.0764,99.579,260.7066,0,U,58848,999,1386,0.00054328,7.909e-05,0
2024-018A,2024-018A,2024-02-07T14:01:58.561248,14.32760084,0.0457685,58.6914,351.1463,174.4408,186.1956,0,U,58849,999,152,0.00025152,2.028e-05,0
2024-018B,2024-018B,2024-02-07T13:54:41.931072,14.33453946,0.0454578,58.6999,351.1308,174.9115,185.6771,0,U,58850,999,151,0.0003729,3.143e-05,0
2024-018C,2024-018C,2024-02-07T13:48:37.818144,14.3400865,0.0451906,58.6883,351.1065,174.358,186.2792,0,U,58851,999,152,0.00018721,1.454e-05,0
2024-018D,2024-018D,2024-02-07T12:09:30.728160,14.33934303,0.0452569,58.6781,351.3435,173.8427,186.8432,0,U,58852,999,151,0.00068424,6.004e-05,0
STARLINK-31238,2024-019A,2024-02-07T14:00:01.000224,15.7757753,0.0001688,43.0044,223.7213,258.6458,72.5254,0,U,58853,999,240,-0.0068106,-0.01054735,0
STARLINK-31158,2024-019B,2024-02-07T14:00:01.000224,15.7744844,0.0001526,43.0042,223.7141,258.3758,75.6061,0,U,58854,999,253,-0.0070521,-0.01082592,0
STARLINK-31237,2024-019C,2024-02-07T14:00:01.000224,15.77509355,0.0001598,43.0039,223.7178,260.5306,72.0843,0,U,58855,999,261,-0.0069352,-0.01069102,0
STARLINK-31244,2024-019D,2024-02-07T14:00:01.000224,15.77396482,0.0001716,43.0043,223.7105,260.2385,75.019,0,U,58856,999,256,-0.0071339,-0.01091654,0
STARLINK-31216,2024-019E,2024-02-07T14:00:01.000224,15.82632226,0.0001559,43.0036,223.4028,272.8456,184.8756,0,U,58857,999,258,-0.0062686,-0.01207866,0
STARLINK-31226,2024-019F,2024-02-07T14:00:01.000224,15.77261816,0.0001562,43.0043,223.7035,259.3883,78.5942,0,U,58858,999,273,-0.0073652,-0.01117177,0
STARLINK-31197,2024-019G,2024-02-07T14:00:01.000224,15.77203232,0.0001526,43.0041,223.7003,258.9489,80.3164,0,U,58859,999,273,-0.0074791,-0.01129938,0
STARLINK-31213,2024-019H,2024-02-07T14:00:01.000224,15.79620321,0.0001505,43.0043,223.6452,260.7382,100.5721,0,U,58860,999,273,-0.0076899,-0.01277158,0
STARLINK-31199,2024-019J,2024-02-07T14:00:01.000224,15.77071185,0.0001693,43.0041,223.6937,260.0472,81.818,0,U,58861,999,273,-0.0077047,-0.01154265,0
STARLINK-31200,2024-019K,2024-02-07T14:00:01.000224,15.77003884,0.0001713,43.0043,223.6905,261.1333,82.0181,0,U,58862,999,273,-0.007827,-0.01167433,0
STARLINK-31149,2024-019L,2024-02-07T14:00:01.000224,15.769397,0.0001687,43.0042,223.6871,259.8933,84.5061,0,U,58863,999,272,-0.0079362,-0.0117887,0
STARLINK-31242,2024-019M,2024-02-07T14:00:01.000224,15.76863101,0.0001542,43.0041,223.684,257.8715,87.8264,0,U,58864,999,273,-0.0080645,-0.01192058,0
STARLINK-31223,2024-019N,2024-02-07T14:00:01.000224,15.76797371,0.0001573,43.0036,223.6811,259.946,86.9838,0,U,58865,999,258,-0.0081986,-0.01206474,0
STARLINK-31219,2024-019P,2024-02-07T14:00:01.000224,15.76725994,0.0001564,43.0037,223.6776,258.9804,89.1883,0,U,58866,999,248,-0.0083215,-0.01219004,0
STARLINK-31198,2024-019Q,2024-02-07T14:00:01.000224,15.8064704,0.0001755,43.0039,223.4927,270.9359,150.8671,0,U,58867,999,248,-0.0068971,-0.01210132,0
STARLINK-31196,2024-019R,2024-02-07T14:00:01.000224,15.76586671,0.0001777,43.0034,223.671,265.5529,85.0315,0,U,58868,999,248,-0.0085615,-0.01243244,0
STARLINK-31203,2024-019S,2024-02-07T14:00:01.000224,15.76499184,0.000161,43.0036,223.668,259.6855,92.1608,0,U,58869,999,273,-0.0087057,-0.01279978,0
STARLINK-31201,2024-019T,2024-02-07T14:00:01.000224,15.76421995,0.0001505,43.0034,223.6651,259.2723,93.7799,0,U,58870,999,253,-0.0088561,-0.01295734,0
STARLINK-31214,2024-019U,2024-02-07T14:00:01.000224,15.7634629,0.0001543,43.0037,223.6623,258.6134,95.616,0,U,58871,999,253,-0.008976,-0.01307498,0
